{
  "type": "FeatureCollection",
  "features": [
    {
      "type": "Feature",
      "id": "marker-1",
      "properties": {
        "name": "Sample Marker",
        "kind": "landmark",
        "featured": true,
        "rank": 1,
        "score": 9.5,
        "badge": "AQID",
        "category": "sample.category.marker",
        "area": "area-1"
      },
      "geometry": {
        "type": "Point",
        "coordinates": [4, 6]
      }
    },
    {
      "type": "Feature",
      "id": "marker-2",
      "properties": {
        "name": "Sample Lookout",
        "kind": "landmark",
        "featured": false,
        "rank": 2,
        "score": 7.25,
        "badge": "BAUG",
        "category": "sample.category.lookout",
        "area": "area-1"
      },
      "geometry": {
        "type": "Point",
        "coordinates": [7.5, 3.5]
      }
    }
  ]
}
